IRIDIUM 36              
1 24967U 97056C   24262.57612274  .00000935  00000+0  30883-3 0  9996
2 24967  86.3914 287.0767 0002315  97.1083 263.0378 14.37038294413207
IRIDIUM 39              
1 25042U 97069D   24263.18953640  .00001739  00000+0  45850-3 0  9991
2 25042  86.3940 327.3278 0019973 127.6806 232.6213 14.48352880409988
IRIDIUM 38              
1 25043U 97069E   24263.18032789  .00001229  00000+0  40412-3 0  9997
2 25043  86.4015 347.1800 0000344 124.5158 235.6072 14.37533211407275
IRIDIUM 42              
1 25077U 97077A   24263.48452885  .00001157  00000+0  39346-3 0  9993
2 25077  86.4025 352.8831 0001469  88.4562 271.6803 14.35811438402349
IRIDIUM 44              
1 25078U 97077B   24263.47131187  .00001089  00000+0  34225-3 0  9997
2 25078  86.3996 335.5487 0002496 139.2950 220.8436 14.39655086404774
IRIDIUM 45              
1 25104U 97082A   24262.81713033  .00018481  00000+0  93418-3 0  9999
2 25104  86.3724 178.1683 0144513 257.9653 100.5357 15.08182376410943
IRIDIUM 24              
1 25105U 97082B   24262.88700945  .00001445  00000+0  43950-3 0  9993
2 25105  86.3977 195.2222 0009070 251.6667 108.3546 14.41470009404372
IRIDIUM 51              
1 25262U 98018A   24262.84510135  .00022251  00000+0  89922-3 0  9990
2 25262  86.4003 187.6646 0130327 194.4026 165.3490 15.17037297405582
